COSMOS 2361             
1 25590U 98076A   09242.51403703  .00000027  00000-0  12713-4 0  1282
2 25590  82.9285  60.1581 0030093 236.7201 123.1074 13.72707224535224
COSMOS 2378             
1 26818U 01023A   09243.08648660 -.00000014  00000-0 -31188-4 0  1182
2 26818  82.9231  86.5000 0032112 200.3313 159.6570 13.73735597412619
COSMOS 2389             
1 27436U 02026A   09242.50026008  .00000009  00000-0 -65949-5 0  8504
2 27436  82.9488  27.6511 0048002  93.6936 266.9718 13.74733955364183
COSMOS 2398             
1 27818U 03023A   09242.76170325  .00000044  00000-0  31711-4 0  7052
2 27818  82.9507 333.9367 0032977  67.9180 292.5475 13.71956982312474
COSMOS 2407             
1 28380U 04028A   09243.12872073  .00000024  00000-0  86898-5 0  5247
2 28380  82.9593 295.3797 0040534 120.2090 240.3093 13.75845076256494
COSMOS 2414             
1 28521U 05002A   09242.45487438  .00000046  00000-0  25811-4 0  4407
2 28521  82.9518   0.9938 0040406 171.4561 188.7293 13.87348873233391
COSMOS 2429             
1 32052U 07038A   09242.86526114  .00000063  00000-0  49201-4 0  6233
2 32052  82.9758  44.9509 0040103  79.8558 280.7115 13.74694848 98829
COSMOS 2454             
1 35635U 09039A   09242.91253583  .00000138  00000-0  10000-3 0   577
2 35635  82.9593 355.7185 0019274 159.0694 201.1263 13.89384929  5658
